OBJECT C                
1 57582U 23117C   24182.18120689  .00008931  00000+0  46447-3 0  9991
2 57582  97.4861 254.0631 0009507 244.0043 116.0211 15.16251428 49159
